GLOBALSTAR M067         
1 32263U 07048A   25261.08429031 -.00000083  00000+0  10428-3 0  9997
2 32263  51.9708 124.1064 0001122 135.3443  30.0843 12.40677794821012
GLOBALSTAR M070         
1 32264U 07048B   25261.01787057 -.00000109  00000+0 -30233-4 0  9993
2 32264  51.9740 205.7016 0000595  41.4634  37.4021 12.62322565825395
GLOBALSTAR M066         
1 32265U 07048C   25261.03672708 -.00000091  00000+0  27521-4 0  9997
2 32265  51.9572 119.1734 0004403 181.3342 345.1690 12.30376682826729
GLOBALSTAR M068         
1 32266U 07048D   25260.52191843 -.00000082  00000+0  12390-3 0  9994
2 32266  51.9911  20.7868 0000879  23.5183  56.7163 12.62828458829221
GLOBALSTAR M079         
1 37188U 10054A   25261.23500462 -.00000103  00000+0  42560-5 0  9991
2 37188  52.0027 216.5338 0000593  88.6395  49.2762 12.62266781688204
GLOBALSTAR M074         
1 37189U 10054B   25260.47521403 -.00000109  00000+0 -30736-4 0  9993
2 37189  52.0002 218.1559 0000307  69.6039  93.0881 12.62271330688719
GLOBALSTAR M076         
1 37190U 10054C   25261.03708108 -.00000107  00000+0 -17082-4 0  9994
2 37190  52.0018 216.6248 0000396 104.5797 332.4091 12.62265316688501
GLOBALSTAR M077         
1 37191U 10054D   25261.11398905 -.00000105  00000+0 -68518-5 0  9993
2 37191  52.0064 173.2575 0000611  67.5371  70.5425 12.62323380688888
